NORAD_CAT_ID,OBJECT_NAME,OBJECT_TYPE,EPOCH,MEAN_MOTION,ECCENTRICITY,INCLINATION,RA_OF_ASC_NODE,ARG_OF_PERICENTER,MEAN_ANOMALY,BSTAR,MEAN_MOTION_DOT,MEAN_MOTION_DDOT,TLE_LINE0,TLE_LINE1,TLE_LINE2,SEMIMAJOR_AXIS,PERIOD,APOGEE,PERIGEE,DECAYED
53728.0,STARLINK-4640,PAYLOAD,2023-02-15 22:49:02,15.08867518,0.0001007,53.2169,231.7964,84.5309,275.5798,0.001184,0.0001862,0.0,0 STARLINK-4640,1 53728U 22107AE  23046.95072559  .00018620  00000-0  11840-2 0  9997,2 53728  53.2169 231.7964 0001007  84.5309 275.5798 15.08867518 25214,6917.796,95.436,540.358,538.965,0.0
53728.0,STARLINK-4640,PAYLOAD,2023-02-16 06:45:58,15.0884663,9.61e-05,53.2164,230.3106,91.19,268.9203,0.00045928,7.03e-05,0.0,0 STARLINK-4640,1 53728U 22107AE  23047.28192886  .00007030  00000-0  45928-3 0  9998,2 53728  53.2164 230.3106 0000961  91.1900 268.9203 15.08846630 25265,6917.86,95.437,540.39,539.06,0.0
53728.0,STARLINK-4640,PAYLOAD,2023-02-16 13:07:31,15.08846387,9.75e-05,53.2162,229.1206,96.7807,263.3296,0.00078882,0.00012291,0.0,0 STARLINK-4640,1 53728U 22107AE  23047.54688875  .00012291  00000-0  78882-3 0  9995,2 53728  53.2162 229.1206 0000975  96.7807 263.3296 15.08846387 25903,6917.861,95.437,540.4,539.051,0.0
53728.0,STARLINK-4640,PAYLOAD,2023-02-16 21:04:26,15.08853039,9.55e-05,53.2163,227.6348,92.9508,267.1594,0.0013651,0.00021512,0.0,0 STARLINK-4640,1 53728U 22107AE  23047.87808737  .00021512  00000-0  13651-2 0  9990,2 53728  53.2163 227.6348 0000955  92.9508 267.1594 15.08853039 25958,6917.841,95.437,540.366,539.045,0.0
53728.0,STARLINK-4640,PAYLOAD,2023-02-17 06:36:45,15.08831585,0.0001138,53.2157,225.8491,101.111,259.001,0.00019525,2.82e-05,0.0,0 STARLINK-4640,1 53728U 22107AE  23048.27553137  .00002820  00000-0  19525-3 0  9994,2 53728  53.2157 225.8491 0001138 101.1110 259.0010 15.08831585 25412,6917.906,95.438,540.558,538.984,0.0
53728.0,STARLINK-4640,PAYLOAD,2023-02-17 12:58:18,15.08832556,0.0001117,53.2158,224.6599,96.7515,263.3604,0.00060051,9.28e-05,0.0,0 STARLINK-4640,1 53728U 22107AE  23048.54049340  .00009280  00000-0  60051-3 0  9997,2 53728  53.2158 224.6599 0001117  96.7515 263.3604 15.08832556 26051,6917.903,95.438,540.541,538.995,0.0
53728.0,STARLINK-4640,PAYLOAD,2023-02-17 22:30:37,15.08839525,0.0001158,53.2162,222.8766,81.6979,278.4144,0.0010781,0.00016911,0.0,0 STARLINK-4640,1 53728U 22107AE  23048.93793537  .00016911  00000-0  10781-2 0  9997,2 53728  53.2162 222.8766 0001158  81.6979 278.4144 15.08839525 26110,6917.882,95.438,540.548,538.946,0.0
53728.0,STARLINK-4640,PAYLOAD,2023-02-18 11:13:43,15.08834499,0.0001238,53.2155,220.497,83.8337,276.2796,0.00051371,7.896e-05,0.0,0 STARLINK-4640,1 53728U 22107AE  23049.46786053  .00007896  00000-0  51371-3 0  9994,2 53728  53.2155 220.4970 0001238  83.8337 276.2796 15.08834499 25599,6917.897,95.438,540.619,538.906,0.0
53728.0,STARLINK-4640,PAYLOAD,2023-02-18 12:49:06,15.08836107,0.0001188,53.2161,220.1997,81.2931,278.8195,0.00054556,8.404e-05,0.0,0 STARLINK-4640,1 53728U 22107AE  23049.53410085  .00008404  00000-0  54556-3 0  9995,2 53728  53.2161 220.1997 0001188  81.2931 278.8195 15.08836107 26206,6917.892,95.438,540.579,538.935,0.0
53728.0,STARLINK-4640,PAYLOAD,2023-02-19 14:15:16,15.08852266,0.0001234,53.2167,215.4417,74.7063,285.4066,0.00069159,0.00010739,0.0,0 STARLINK-4640,1 53728U 22107AE  23050.59393954  .00010739  00000-0  69159-3 0  9997,2 53728  53.2167 215.4417 0001234  74.7063 285.4066 15.08852266 26363,6917.843,95.437,540.562,538.854,0.0
53728.0,STARLINK-4640,PAYLOAD,2023-02-19 15:50:39,15.08854692,0.000124,53.2166,215.1443,74.8568,285.2561,0.00072826,0.00011326,0.0,0 STARLINK-4640,1 53728U 22107AE  23050.66017864  .00011326  00000-0  72826-3 0  9996,2 53728  53.2166 215.1443 0001240  74.8568 285.2561 15.08854692 25773,6917.835,95.437,540.558,538.843,0.0
53728.0,STARLINK-4640,PAYLOAD,2023-02-19 22:12:11,15.08863781,0.0001244,53.2169,213.9547,74.8744,285.2386,0.00082882,0.00012936,0.0,0 STARLINK-4640,1 53728U 22107AE  23050.92513442  .00012936  00000-0  82882-3 0  9999,2 53728  53.2169 213.9547 0001244  74.8744 285.2386 15.08863781 26413,6917.808,95.436,540.533,538.812,0.0
53728.0,STARLINK-4640,PAYLOAD,2023-02-20 22:02:56,15.08902381,0.0001357,53.2176,209.4944,87.5433,272.5714,0.0012997,0.00020493,0.0,0 STARLINK-4640,1 53728U 22107AE  23051.91871153  .00020493  00000-0  12997-2 0  9991,2 53728  53.2176 209.4944 0001357  87.5433 272.5714 15.08902381 25966,6917.69,95.434,540.493,538.616,0.0
53728.0,STARLINK-4640,PAYLOAD,2023-02-21 10:46:02,15.08852951,0.0002461,53.2174,207.1164,73.5348,286.5914,-0.00014728,-2.633e-05,0.0,0 STARLINK-4640,1 53728U 22107AE  23052.44863905 -.00002633  00000-0 -14728-3 0  9999,2 53728  53.2174 207.1164 0002461  73.5348 286.5914 15.08852951 26044,6917.841,95.437,541.408,538.003,0.0
53728.0,STARLINK-4640,PAYLOAD,2023-02-21 20:18:21,15.08846453,0.0001604,53.219,205.3321,75.0868,285.0302,-0.00010274,-1.923e-05,0.0,0 STARLINK-4640,1 53728U 22107AE  23052.84607820 -.00001923  00000-0 -10274-3 0  9998,2 53728  53.2190 205.3321 0001604  75.0868 285.0302 15.08846453 26707,6917.861,95.437,540.835,538.616,0.0
53728.0,STARLINK-4640,PAYLOAD,2023-02-22 02:39:53,15.08823783,5.83e-05,53.2192,204.1446,113.1093,246.996,-0.00033426,-5.601e-05,0.0,0 STARLINK-4640,1 53728U 22107AE  23053.11103992 -.00005601  00000-0 -33426-3 0  9991,2 53728  53.2192 204.1446 0000583 113.1093 246.9960 15.08823783 26148,6917.93,95.439,540.198,539.392,0.0
53728.0,STARLINK-4640,PAYLOAD,2023-02-22 10:36:50,15.08825087,0.0001104,53.2196,202.658,93.6918,266.4201,-0.00018698,-3.261e-05,0.0,0 STARLINK-4640,1 53728U 22107AE  23053.44224711 -.00003261  00000-0 -18698-3 0  9994,2 53728  53.2196 202.6580 0001104  93.6918 266.4201 15.08825087 26797,6917.926,95.438,540.555,539.027,0.0
53728.0,STARLINK-4640,PAYLOAD,2023-02-22 16:58:22,15.08831741,0.0001902,53.2182,201.4663,80.5121,279.6086,0.0004874,7.476e-05,0.0,0 STARLINK-4640,1 53728U 22107AE  23053.70720947  .00007476  00000-0  48740-3 0  9996,2 53728  53.2182 201.4663 0001902  80.5121 279.6086 15.08831741 26238,6917.906,95.438,541.086,538.455,0.0
53728.0,STARLINK-4640,PAYLOAD,2023-02-22 20:09:09,15.08837056,0.0001553,53.218,200.8715,70.3139,289.8021,0.00088143,0.00013767,0.0,0 STARLINK-4640,1 53728U 22107AE  23053.83969144  .00013767  00000-0  88143-3 0  9995,2 53728  53.2180 200.8715 0001553  70.3139 289.8021 15.08837056 26850,6917.889,95.438,540.829,538.68,0.0
53728.0,STARLINK-4640,PAYLOAD,2023-02-23 02:30:42,15.08824703,0.0002149,53.2181,199.6821,76.3093,283.8138,0.0002017,2.922e-05,0.0,0 STARLINK-4640,1 53728U 22107AE  23054.10465660  .00002922  00000-0  20170-3 0  9997,2 53728  53.2181 199.6821 0002149  76.3093 283.8138 15.08824703 26297,6917.927,95.439,541.279,538.305,0.0
53728.0,STARLINK-4640,PAYLOAD,2023-02-23 08:52:15,15.08830617,0.0001931,53.2182,198.4918,76.4895,283.6312,0.00048135,7.379e-05,0.0,0 STARLINK-4640,1 53728U 22107AE  23054.36961874  .00007379  00000-0  48135-3 0  9995,2 53728  53.2182 198.4918 0001931  76.4895 283.6312 15.08830617 26935,6917.909,95.438,541.11,538.438,0.0
53728.0,STARLINK-4640,PAYLOAD,2023-02-23 15:13:47,15.08836957,0.0001744,53.2183,197.3038,77.7617,282.3571,0.00071304,0.00011077,0.0,0 STARLINK-4640,1 53728U 22107AE  23054.63457853  .00011077  00000-0  71304-3 0  9996,2 53728  53.2183 197.3038 0001744  77.7617 282.3571 15.08836957 26975,6917.89,95.438,540.961,538.548,0.0
53728.0,STARLINK-4640,PAYLOAD,2023-02-23 21:35:20,15.08851839,0.000162,53.2181,196.1144,77.4454,282.672,0.0010941,0.00017173,0.0,0 STARLINK-4640,1 53728U 22107AE  23054.89953719  .00017173  00000-0  10941-2 0  9998,2 53728  53.2181 196.1144 0001620  77.4454 282.6720 15.08851839 26411,6917.844,95.437,540.83,538.589,0.0
53728.0,STARLINK-4640,PAYLOAD,2023-02-24 13:29:11,15.08841144,0.0001202,53.2187,193.142,70.3445,289.7676,0.00051705,7.951e-05,0.0,0 STARLINK-4640,1 53728U 22107AE  23055.56194095  .00007951  00000-0  51705-3 0  9994,2 53728  53.2187 193.1420 0001202  70.3445 289.7676 15.08841144 26516,6917.877,95.437,540.573,538.91,0.0
53728.0,STARLINK-4640,PAYLOAD,2023-02-24 18:15:21,15.08847397,0.0001403,53.2182,192.2498,78.3787,281.7362,0.0012693,0.00019975,0.0,0 STARLINK-4640,1 53728U 22107AE  23055.76066094  .00019975  00000-0  12693-2 0  9994,2 53728  53.2182 192.2498 0001403  78.3787 281.7362 15.08847397 27146,6917.858,95.437,540.693,538.752,0.0
53728.0,STARLINK-4640,PAYLOAD,2023-02-25 02:12:16,15.08833836,3.89e-05,53.2181,190.7622,118.4535,241.6496,0.00029334,4.383e-05,0.0,0 STARLINK-4640,1 53728U 22107AE  23056.09185946  .00004383  00000-0  29334-3 0  9997,2 53728  53.2181 190.7622 0000389 118.4535 241.6496 15.08833836 26590,6917.899,95.438,540.033,539.495,0.0
53728.0,STARLINK-4640,PAYLOAD,2023-02-25 13:19:59,15.08832879,8.04e-05,53.2174,188.6811,116.5343,243.5731,0.001195,0.00018778,0.0,0 STARLINK-4640,1 53728U 22107AE  23056.55554507  .00018778  00000-0  11950-2 0  9998,2 53728  53.2174 188.6811 0000804 116.5343 243.5731 15.08832879 27260,6917.902,95.438,540.323,539.211,0.0
53728.0,STARLINK-4640,PAYLOAD,2023-02-25 21:16:54,15.08849401,0.0001185,53.2169,187.193,97.4178,262.6949,0.0016085,0.00025411,0.0,0 STARLINK-4640,1 53728U 22107AE  23056.88674553  .00025411  00000-0  16085-2 0  9994,2 53728  53.2169 187.1930 0001185  97.4178 262.6949 15.08849401 27314,6917.852,95.437,540.536,538.897,0.0
53728.0,STARLINK-4640,PAYLOAD,2023-02-26 08:24:36,15.08854747,0.0001329,53.2166,185.1133,91.516,268.5984,0.0010913,0.0001713,0.0,0 STARLINK-4640,1 53728U 22107AE  23057.35042566  .00017130  00000-0  10913-2 0  9993,2 53728  53.2166 185.1133 0001329  91.5160 268.5984 15.08854747 26783,6917.835,95.437,540.62,538.781,0.0
53728.0,STARLINK-4640,PAYLOAD,2023-02-26 19:32:18,15.08870153,0.0001403,53.2172,183.0298,94.3914,265.7239,0.0011406,0.00017926,0.0,0 STARLINK-4640,1 53728U 22107AE  23057.81409865  .00017926  00000-0  11406-2 0  9994,2 53728  53.2172 183.0298 0001403  94.3914 265.7239 15.08870153 27456,6917.788,95.436,540.624,538.683,0.0
